start=new Date('2023-04-06T00:00:00.000Z').valueOf();
sats=[{"OBJECT_ID":"2020-019U","CLASSIFICATION_TYPE":"U","BSTAR":"0.00118020000000","SEMIMAJOR_AXIS":"6925.294","OBJECT_NAME":"STARLINK-1310","RCS_SIZE":"LARGE","GP_ID":"229566867","REF_FRAME":"TEME","ELEMENT_SET_NO":"999","LAUNCH_DATE":"2020-03-18","EPOCH":"2023-04-05T18:17:41.729856","MEAN_MOTION":"15.06417911","COUNTRY_CODE":"US","TLE_LINE2":"2 45378  53.0525 285.2169 0000577 106.1245 253.9807 15.06417911168622","ECCENTRICITY":"0.00005770","REV_AT_EPOCH":"16862","DECAY_DATE":null,"PERIAPSIS":"546.759","CENTER_NAME":"EARTH","APOAPSIS":"547.558","MEAN_MOTION_DOT":"0.00017350","TIME_SYSTEM":"UTC","TLE_LINE1":"1 45378U 20019U   23095.76228854  .00017350  00000-0  11802-2 0  9990","OBJECT_TYPE":"PAYLOAD","EPHEMERIS_TYPE":"0","RA_OF_ASC_NODE":"285.2169","MEAN_MOTION_DDOT":"0.0000000000000","FILE":"3881153","ARG_OF_PERICENTER":"106.1245","PERIOD":"95.591","INCLINATION":"53.0525","MEAN_ANOMALY":"253.9807","MEAN_ELEMENT_THEORY":"SGP4","NORAD_CAT_ID":"45378","SITE":"AFETR"},{"ARG_OF_PERICENTER":"87.1040","INCLINATION":"53.0543","PERIOD":"95.591","MEAN_ANOMALY":"273.0085","MEAN_ELEMENT_THEORY":"SGP4","NORAD_CAT_ID":"45379","SITE":"AFETR","OBJECT_TYPE":"PAYLOAD","EPHEMERIS_TYPE":"0","RA_OF_ASC_NODE":"284.9083","MEAN_MOTION_DDOT":"0.0000000000000","FILE":"3881153","TLE_LINE1":"1 45379U 20019V   23095.83232379  .00018235  00000-0  12393-2 0  9995","APOAPSIS":"547.982","MEAN_MOTION_DOT":"0.00018235","TIME_SYSTEM":"UTC","ECCENTRICITY":"0.00011900","REV_AT_EPOCH":"16863","DECAY_DATE":null,"PERIAPSIS":"546.333","CENTER_NAME":"EARTH","COUNTRY_CODE":"US","MEAN_MOTION":"15.06418263","TLE_LINE2":"2 45379  53.0543 284.9083 0001190  87.1040 273.0085 15.06418263168630","SEMIMAJOR_AXIS":"6925.293","OBJECT_NAME":"STARLINK-1319","REF_FRAME":"TEME","GP_ID":"229566618","RCS_SIZE":"LARGE","EPOCH":"2023-04-05T19:58:32.775456","LAUNCH_DATE":"2020-03-18","ELEMENT_SET_NO":"999","OBJECT_ID":"2020-019V","CLASSIFICATION_TYPE":"U","BSTAR":"0.00123930000000"},{"CLASSIFICATION_TYPE":"U","OBJECT_ID":"2020-019W","BSTAR":"0.00155520000000","SEMIMAJOR_AXIS":"6925.281","EPOCH":"2023-04-05T18:20:20.748192","LAUNCH_DATE":"2020-03-18","ELEMENT_SET_NO":"999","GP_ID":"229567868","REF_FRAME":"TEME","RCS_SIZE":"LARGE","OBJECT_NAME":"STARLINK-1207","TLE_LINE2":"2 45380  53.0520 265.2109 0000567  89.9869 270.1185 15.06422054168894","MEAN_MOTION":"15.06422054","COUNTRY_CODE":"US","PERIAPSIS":"546.753","DECAY_DATE":null,"REV_AT_EPOCH":"16889","ECCENTRICITY":"0.00005670","CENTER_NAME":"EARTH","MEAN_MOTION_DOT":"0.00022973","APOAPSIS":"547.539","TIME_SYSTEM":"UTC","TLE_LINE1":"1 45380U 20019W   23095.76412903  .00022973  00000-0  15552-2 0  9996","RA_OF_ASC_NODE":"265.2109","EPHEMERIS_TYPE":"0","OBJECT_TYPE":"PAYLOAD","MEAN_MOTION_DDOT":"0.0000000000000","FILE":"3881153","NORAD_CAT_ID":"45380","MEAN_ELEMENT_THEORY":"SGP4","MEAN_ANOMALY":"270.1185","PERIOD":"95.591","INCLINATION":"53.0520","ARG_OF_PERICENTER":"89.9869","SITE":"AFETR"},{"DECAY_DATE":null,"PERIAPSIS":"546.511","ECCENTRICITY":"0.00008590","REV_AT_EPOCH":"16890","CENTER_NAME":"EARTH","TLE_LINE2":"2 45381  53.0515 264.8624 0000859  81.2251 278.8835 15.06435070168901","COUNTRY_CODE":"US","MEAN_MOTION":"15.06435070","SEMIMAJOR_AXIS":"6925.241","LAUNCH_DATE":"2020-03-18","ELEMENT_SET_NO":"999","EPOCH":"2023-04-05T20:11:47.901696","OBJECT_NAME":"STARLINK-1258","GP_ID":"229567602","RCS_SIZE":"LARGE","REF_FRAME":"TEME","CLASSIFICATION_TYPE":"U","OBJECT_ID":"2020-019X","BSTAR":"0.00158520000000","MEAN_ANOMALY":"278.8835","MEAN_ELEMENT_THEORY":"SGP4","NORAD_CAT_ID":"45381","ARG_OF_PERICENTER":"81.2251","PERIOD":"95.590","INCLINATION":"53.0515","SITE":"AFETR","EPHEMERIS_TYPE":"0","RA_OF_ASC_NODE":"264.8624","OBJECT_TYPE":"PAYLOAD","FILE":"3881153","MEAN_MOTION_DDOT":"0.0000000000000","TLE_LINE1":"1 45381U 20019X   23095.84152664  .00023431  00000-0  15852-2 0  9994","APOAPSIS":"547.701","MEAN_MOTION_DOT":"0.00023431","TIME_SYSTEM":"UTC"},{"SEMIMAJOR_AXIS":"6888.477","OBJECT_NAME":"STARLINK-1264","GP_ID":"229566368","REF_FRAME":"TEME","RCS_SIZE":"LARGE","LAUNCH_DATE":"2020-03-18","EPOCH":"2023-04-05T18:01:27.755616","ELEMENT_SET_NO":"999","OBJECT_ID":"2020-019Y","CLASSIFICATION_TYPE":"U","BSTAR":"0.00156590000000","ECCENTRICITY":"0.00032880","REV_AT_EPOCH":"16881","DECAY_DATE":null,"PERIAPSIS":"508.077","CENTER_NAME":"EARTH","COUNTRY_CODE":"US","MEAN_MOTION":"15.18510893","TLE_LINE2":"2 45382  53.0477 258.2140 0003288 227.0766 132.9953 15.18510893168810","TLE_LINE1":"1 45382U 20019Y   23095.75101569  .00032540  00000-0  15659-2 0  9999","APOAPSIS":"512.607","MEAN_MOTION_DOT":"0.00032540","TIME_SYSTEM":"UTC","ARG_OF_PERICENTER":"227.0766","PERIOD":"94.830","INCLINATION":"53.0477","MEAN_ANOMALY":"132.9953","NORAD_CAT_ID":"45382","MEAN_ELEMENT_THEORY":"SGP4","SITE":"AFETR","OBJECT_TYPE":"PAYLOAD","EPHEMERIS_TYPE":"0","RA_OF_ASC_NODE":"258.2140","FILE":"3881153","MEAN_MOTION_DDOT":"0.0000000000000"},{"APOAPSIS":"547.577","MEAN_MOTION_DOT":"0.00021544","TIME_SYSTEM":"UTC","TLE_LINE1":"1 45383U 20019Z   23095.76781187  .00021544  00000-0  14595-2 0  9991","EPHEMERIS_TYPE":"0","RA_OF_ASC_NODE":"265.1959","OBJECT_TYPE":"PAYLOAD","FILE":"3881153","MEAN_MOTION_DDOT":"0.0000000000000","MEAN_ANOMALY":"309.5835","NORAD_CAT_ID":"45383","MEAN_ELEMENT_THEORY":"SGP4","ARG_OF_PERICENTER":"50.5213","INCLINATION":"53.0514","PERIOD":"95.590","SITE":"AFETR","CLASSIFICATION_TYPE":"U","OBJECT_ID":"2020-019Z","BSTAR":"0.00145950000000","SEMIMAJOR_AXIS":"6925.247","ELEMENT_SET_NO":"999","LAUNCH_DATE":"2020-03-18","EPOCH":"2023-04-05T18:25:38.945568","OBJECT_NAME":"STARLINK-1266","RCS_SIZE":"LARGE","GP_ID":"229567118","REF_FRAME":"TEME","TLE_LINE2":"2 45383  53.0514 265.1959 0000672  50.5213 309.5835 15.06433254168899","COUNTRY_CODE":"US","MEAN_MOTION":"15.06433254","DECAY_DATE":null,"PERIAPSIS":"546.646","ECCENTRICITY":"0.00006720","REV_AT_EPOCH":"16889","CENTER_NAME":"EARTH"},{"TLE_LINE1":"1 45384U 20019AA  23095.75580827  .00023840  00000-0  16126-2 0  9992","TIME_SYSTEM":"UTC","MEAN_MOTION_DOT":"0.00023840","APOAPSIS":"547.716","SITE":"AFETR","NORAD_CAT_ID":"45384","MEAN_ELEMENT_THEORY":"SGP4","MEAN_ANOMALY":"266.3408","PERIOD":"95.590","INCLINATION":"53.0521","ARG_OF_PERICENTER":"93.7679","FILE":"3881153","MEAN_MOTION_DDOT":"0.0000000000000","RA_OF_ASC_NODE":"265.2406","EPHEMERIS_TYPE":"0","OBJECT_TYPE":"PAYLOAD","LAUNCH_DATE":"2020-03-18","ELEMENT_SET_NO":"999","EPOCH":"2023-04-05T18:08:21.834528","REF_FRAME":"TEME","GP_ID":"229567369","RCS_SIZE":"LARGE","OBJECT_NAME":"STARLINK-1267","SEMIMAJOR_AXIS":"6925.253","BSTAR":"0.00161260000000","CLASSIFICATION_TYPE":"U","OBJECT_ID":"2020-019AA","CENTER_NAME":"EARTH","PERIAPSIS":"546.520","DECAY_DATE":null,"REV_AT_EPOCH":"16889","ECCENTRICITY":"0.00008640","TLE_LINE2":"2 45384  53.0521 265.2406 0000864  93.7679 266.3408 15.06431221168892","MEAN_MOTION":"15.06431221","COUNTRY_CODE":"US"},{"SITE":"AFETR","NORAD_CAT_ID":"45386","MEAN_ELEMENT_THEORY":"SGP4","MEAN_ANOMALY":"265.2873","INCLINATION":"53.0541","PERIOD":"95.591","ARG_OF_PERICENTER":"94.8232","MEAN_MOTION_DDOT":"0.0000000000000","FILE":"3881153","RA_OF_ASC_NODE":"265.2267","EPHEMERIS_TYPE":"0","OBJECT_TYPE":"PAYLOAD","TLE_LINE1":"1 45386U 20019AC  23095.76045103  .00017075  00000-0  11617-2 0  9991","TIME_SYSTEM":"UTC","MEAN_MOTION_DOT":"0.00017075","APOAPSIS":"547.846","CENTER_NAME":"EARTH","PERIAPSIS":"546.435","DECAY_DATE":null,"REV_AT_EPOCH":"16889","ECCENTRICITY":"0.00010190","TLE_LINE2":"2 45386  53.0541 265.2267 0001019  94.8232 265.2873 15.06423891168899","MEAN_MOTION":"15.06423891","COUNTRY_CODE":"US","EPOCH":"2023-04-05T18:15:02.968992","LAUNCH_DATE":"2020-03-18","ELEMENT_SET_NO":"999","GP_ID":"229568102","REF_FRAME":"TEME","RCS_SIZE":"LARGE","OBJECT_NAME":"STARLINK-1272","SEMIMAJOR_AXIS":"6925.275","BSTAR":"0.00116170000000","CLASSIFICATION_TYPE":"U","OBJECT_ID":"2020-019AC"},{"DECAY_DATE":null,"PERIAPSIS":"546.499","ECCENTRICITY":"0.00008820","REV_AT_EPOCH":"16888","CENTER_NAME":"EARTH","TLE_LINE2":"2 45387  53.0526 264.8269 0000882  96.5395 263.5694 15.06433735168885","COUNTRY_CODE":"US","MEAN_MOTION":"15.06433735","SEMIMAJOR_AXIS":"6925.245","EPOCH":"2023-04-05T20:22:24.899520","LAUNCH_DATE":"2020-03-18","ELEMENT_SET_NO":"999","OBJECT_NAME":"STARLINK-1274","GP_ID":"229546361","RCS_SIZE":"LARGE","REF_FRAME":"TEME","CLASSIFICATION_TYPE":"U","OBJECT_ID":"2020-019AD","BSTAR":"0.00158570000000","MEAN_ANOMALY":"263.5694","MEAN_ELEMENT_THEORY":"SGP4","NORAD_CAT_ID":"45387","ARG_OF_PERICENTER":"96.5395","INCLINATION":"53.0526","PERIOD":"95.590","SITE":"AFETR","EPHEMERIS_TYPE":"0","RA_OF_ASC_NODE":"264.8269","OBJECT_TYPE":"PAYLOAD","FILE":"3881102","MEAN_MOTION_DDOT":"0.0000000000000","TLE_LINE1":"1 45387U 20019AD  23095.84889930  .00023438  00000-0  15857-2 0  9995","APOAPSIS":"547.721","MEAN_MOTION_DOT":"0.00023438","TIME_SYSTEM":"UTC"},{"EPHEMERIS_TYPE":"0","RA_OF_ASC_NODE":"285.2680","OBJECT_TYPE":"PAYLOAD","FILE":"3881153","MEAN_MOTION_DDOT":"0.0000000000000","MEAN_ANOMALY":"247.5783","MEAN_ELEMENT_THEORY":"SGP4","NORAD_CAT_ID":"45388","ARG_OF_PERICENTER":"112.5314","INCLINATION":"53.0525","PERIOD":"95.593","SITE":"AFETR","APOAPSIS":"547.958","MEAN_MOTION_DOT":"0.00017407","TIME_SYSTEM":"UTC","TLE_LINE1":"1 45388U 20019AE  23095.75122348  .00017407  00000-0  11850-2 0  9997","TLE_LINE2":"2 45388  53.0525 285.2680 0001015 112.5314 247.5783 15.06386415168601","MEAN_MOTION":"15.06386415","COUNTRY_CODE":"US","DECAY_DATE":null,"PERIAPSIS":"546.552","ECCENTRICITY":"0.00010150","REV_AT_EPOCH":"16860","CENTER_NAME":"EARTH","CLASSIFICATION_TYPE":"U","OBJECT_ID":"2020-019AE","BSTAR":"0.00118500000000","SEMIMAJOR_AXIS":"6925.390","LAUNCH_DATE":"2020-03-18","EPOCH":"2023-04-05T18:01:45.708672","ELEMENT_SET_NO":"999","OBJECT_NAME":"STARLINK-1280","GP_ID":"229566619","RCS_SIZE":"LARGE","REF_FRAME":"TEME"}];
